ORBCOMM FM24 [-]        
1 25478U 98053D   23286.67745045  .00002930  00000+0  10733-2 0  9999
2 25478  45.0080 284.9904 0001985 311.0020  49.0655 14.34761202309383
ORBCOMM FM25 [-]        
1 25479U 98053E   23286.98943559  .00002951  00000+0  10810-2 0  9993
2 25479  45.0073 281.7521 0002424  24.9258 335.1706 14.34745100309721
ORBCOMM FM26 [-]        
1 25480U 98053F   23286.71554947  .00002396  00000+0  89461-3 0  9997
2 25480  45.0066 276.3849 0003693  71.5135 288.6113 14.34316510309632
ORBCOMM FM27 [+]        
1 25481U 98053G   23287.04380280  .00003113  00000+0  11381-2 0  9995
2 25481  45.0054 281.7509 0002513 274.3470  85.7089 14.34720962309704
ORBCOMM FM28 [-]        
1 25482U 98053H   23287.16820460  .00002763  00000+0  10058-2 0  9998
2 25482  45.0056 220.3791 0002379  93.2687 266.8432 14.35216373310519
ORBCOMM FM30 [-]        
1 25980U 99065A   23286.83668875  .00002642  00000+0  97892-3 0  9996
2 25980  45.0300 101.1336 0006517 182.4982 177.5833 14.34442722246443
ORBCOMM FM31 [-]        
1 25981U 99065B   23286.87401762  .00002718  00000+0  10050-2 0  9995
2 25981  45.0218  94.8223 0003659 202.4005 157.6683 14.34472808246000
ORBCOMM FM32 [+]        
1 25982U 99065C   23286.77306504  .00002457  00000+0  93241-3 0  9997
2 25982  45.0143 107.5584 0005613 206.2159 153.8404 14.33415980246640
