<?xml version="1.0" encoding="UTF-8"?>
<ndm xmlns:xsi="http://www.w3.org/2001/XMLSchema-instance" xsi:noNamespaceSchemaLocation="https://sanaregistry.org/r/ndmxml_unqualified/ndmxml-2.0.0-master-2.0.xsd">
<omm id="CCSDS_OMM_VERS" version="2.0">
<header><CREATION_DATE/><ORIGINATOR/></header><body><segment><metadata><OBJECT_NAME>ORBCOMM FM24 [-]</OBJECT_NAME><OBJECT_ID>1998-053D</OBJECT_ID><CENTER_NAME>EARTH</CENTER_NAME><REF_FRAME>TEME</REF_FRAME><TIME_SYSTEM>UTC</TIME_SYSTEM><MEAN_ELEMENT_THEORY>SGP4</MEAN_ELEMENT_THEORY></metadata><data><meanElements><EPOCH>2023-10-13T16:15:31.718880</EPOCH><MEAN_MOTION>14.34761202</MEAN_MOTION><ECCENTRICITY>.0001985</ECCENTRICITY><INCLINATION>45.0080</INCLINATION><RA_OF_ASC_NODE>284.9904</RA_OF_ASC_NODE><ARG_OF_PERICENTER>311.0020</ARG_OF_PERICENTER><MEAN_ANOMALY>49.0655</MEAN_ANOMALY></meanElements><tleParameters><EPHEMERIS_TYPE>0</EPHEMERIS_TYPE><CLASSIFICATION_TYPE>U</CLASSIFICATION_TYPE><NORAD_CAT_ID>25478</NORAD_CAT_ID><ELEMENT_SET_NO>999</ELEMENT_SET_NO><REV_AT_EPOCH>30938</REV_AT_EPOCH><BSTAR>.10733E-2</BSTAR><MEAN_MOTION_DOT>.293E-4</MEAN_MOTION_DOT><MEAN_MOTION_DDOT>0</MEAN_MOTION_DDOT></tleParameters></data></segment></body></omm>
<omm id="CCSDS_OMM_VERS" version="2.0">
<header><CREATION_DATE/><ORIGINATOR/></header><body><segment><metadata><OBJECT_NAME>ORBCOMM FM25 [-]</OBJECT_NAME><OBJECT_ID>1998-053E</OBJECT_ID><CENTER_NAME>EARTH</CENTER_NAME><REF_FRAME>TEME</REF_FRAME><TIME_SYSTEM>UTC</TIME_SYSTEM><MEAN_ELEMENT_THEORY>SGP4</MEAN_ELEMENT_THEORY></metadata><data><meanElements><EPOCH>2023-10-13T23:44:47.234976</EPOCH><MEAN_MOTION>14.34745100</MEAN_MOTION><ECCENTRICITY>.0002424</ECCENTRICITY><INCLINATION>45.0073</INCLINATION><RA_OF_ASC_NODE>281.7521</RA_OF_ASC_NODE><ARG_OF_PERICENTER>24.9258</ARG_OF_PERICENTER><MEAN_ANOMALY>335.1706</MEAN_ANOMALY></meanElements><tleParameters><EPHEMERIS_TYPE>0</EPHEMERIS_TYPE><CLASSIFICATION_TYPE>U</CLASSIFICATION_TYPE><NORAD_CAT_ID>25479</NORAD_CAT_ID><ELEMENT_SET_NO>999</ELEMENT_SET_NO><REV_AT_EPOCH>30972</REV_AT_EPOCH><BSTAR>.1081E-2</BSTAR><MEAN_MOTION_DOT>.2951E-4</MEAN_MOTION_DOT><MEAN_MOTION_DDOT>0</MEAN_MOTION_DDOT></tleParameters></data></segment></body></omm>
<omm id="CCSDS_OMM_VERS" version="2.0">
<header><CREATION_DATE/><ORIGINATOR/></header><body><segment><metadata><OBJECT_NAME>ORBCOMM FM26 [-]</OBJECT_NAME><OBJECT_ID>1998-053F</OBJECT_ID><CENTER_NAME>EARTH</CENTER_NAME><REF_FRAME>TEME</REF_FRAME><TIME_SYSTEM>UTC</TIME_SYSTEM><MEAN_ELEMENT_THEORY>SGP4</MEAN_ELEMENT_THEORY></metadata><data><meanElements><EPOCH>2023-10-13T17:10:23.474208</EPOCH><MEAN_MOTION>14.34316510</MEAN_MOTION><ECCENTRICITY>.0003693</ECCENTRICITY><INCLINATION>45.0066</INCLINATION><RA_OF_ASC_NODE>276.3849</RA_OF_ASC_NODE><ARG_OF_PERICENTER>71.5135</ARG_OF_PERICENTER><MEAN_ANOMALY>288.6113</MEAN_ANOMALY></meanElements><tleParameters><EPHEMERIS_TYPE>0</EPHEMERIS_TYPE><CLASSIFICATION_TYPE>U</CLASSIFICATION_TYPE><NORAD_CAT_ID>25480</NORAD_CAT_ID><ELEMENT_SET_NO>999</ELEMENT_SET_NO><REV_AT_EPOCH>30963</REV_AT_EPOCH><BSTAR>.89461E-3</BSTAR><MEAN_MOTION_DOT>.2396E-4</MEAN_MOTION_DOT><MEAN_MOTION_DDOT>0</MEAN_MOTION_DDOT></tleParameters></data></segment></body></omm>
<omm id="CCSDS_OMM_VERS" version="2.0">
<header><CREATION_DATE/><ORIGINATOR/></header><body><segment><metadata><OBJECT_NAME>ORBCOMM FM27 [+]</OBJECT_NAME><OBJECT_ID>1998-053G</OBJECT_ID><CENTER_NAME>EARTH</CENTER_NAME><REF_FRAME>TEME</REF_FRAME><TIME_SYSTEM>UTC</TIME_SYSTEM><MEAN_ELEMENT_THEORY>SGP4</MEAN_ELEMENT_THEORY></metadata><data><meanElements><EPOCH>2023-10-14T01:03:04.561920</EPOCH><MEAN_MOTION>14.34720962</MEAN_MOTION><ECCENTRICITY>.0002513</ECCENTRICITY><INCLINATION>45.0054</INCLINATION><RA_OF_ASC_NODE>281.7509</RA_OF_ASC_NODE><ARG_OF_PERICENTER>274.3470</ARG_OF_PERICENTER><MEAN_ANOMALY>85.7089</MEAN_ANOMALY></meanElements><tleParameters><EPHEMERIS_TYPE>0</EPHEMERIS_TYPE><CLASSIFICATION_TYPE>U</CLASSIFICATION_TYPE><NORAD_CAT_ID>25481</NORAD_CAT_ID><ELEMENT_SET_NO>999</ELEMENT_SET_NO><REV_AT_EPOCH>30970</REV_AT_EPOCH><BSTAR>.11381E-2</BSTAR><MEAN_MOTION_DOT>.3113E-4</MEAN_MOTION_DOT><MEAN_MOTION_DDOT>0</MEAN_MOTION_DDOT></tleParameters></data></segment></body></omm>
<omm id="CCSDS_OMM_VERS" version="2.0">
<header><CREATION_DATE/><ORIGINATOR/></header><body><segment><metadata><OBJECT_NAME>ORBCOMM FM28 [-]</OBJECT_NAME><OBJECT_ID>1998-053H</OBJECT_ID><CENTER_NAME>EARTH</CENTER_NAME><REF_FRAME>TEME</REF_FRAME><TIME_SYSTEM>UTC</TIME_SYSTEM><MEAN_ELEMENT_THEORY>SGP4</MEAN_ELEMENT_THEORY></metadata><data><meanElements><EPOCH>2023-10-14T04:02:12.877440</EPOCH><MEAN_MOTION>14.35216373</MEAN_MOTION><ECCENTRICITY>.0002379</ECCENTRICITY><INCLINATION>45.0056</INCLINATION><RA_OF_ASC_NODE>220.3791</RA_OF_ASC_NODE><ARG_OF_PERICENTER>93.2687</ARG_OF_PERICENTER><MEAN_ANOMALY>266.8432</MEAN_ANOMALY></meanElements><tleParameters><EPHEMERIS_TYPE>0</EPHEMERIS_TYPE><CLASSIFICATION_TYPE>U</CLASSIFICATION_TYPE><NORAD_CAT_ID>25482</NORAD_CAT_ID><ELEMENT_SET_NO>999</ELEMENT_SET_NO><REV_AT_EPOCH>31051</REV_AT_EPOCH><BSTAR>.10058E-2</BSTAR><MEAN_MOTION_DOT>.2763E-4</MEAN_MOTION_DOT><MEAN_MOTION_DDOT>0</MEAN_MOTION_DDOT></tleParameters></data></segment></body></omm>
<omm id="CCSDS_OMM_VERS" version="2.0">
<header><CREATION_DATE/><ORIGINATOR/></header><body><segment><metadata><OBJECT_NAME>ORBCOMM FM30 [-]</OBJECT_NAME><OBJECT_ID>1999-065A</OBJECT_ID><CENTER_NAME>EARTH</CENTER_NAME><REF_FRAME>TEME</REF_FRAME><TIME_SYSTEM>UTC</TIME_SYSTEM><MEAN_ELEMENT_THEORY>SGP4</MEAN_ELEMENT_THEORY></metadata><data><meanElements><EPOCH>2023-10-13T20:04:49.908000</EPOCH><MEAN_MOTION>14.34442722</MEAN_MOTION><ECCENTRICITY>.0006517</ECCENTRICITY><INCLINATION>45.0300</INCLINATION><RA_OF_ASC_NODE>101.1336</RA_OF_ASC_NODE><ARG_OF_PERICENTER>182.4982</ARG_OF_PERICENTER><MEAN_ANOMALY>177.5833</MEAN_ANOMALY></meanElements><tleParameters><EPHEMERIS_TYPE>0</EPHEMERIS_TYPE><CLASSIFICATION_TYPE>U</CLASSIFICATION_TYPE><NORAD_CAT_ID>25980</NORAD_CAT_ID><ELEMENT_SET_NO>999</ELEMENT_SET_NO><REV_AT_EPOCH>24644</REV_AT_EPOCH><BSTAR>.97892E-3</BSTAR><MEAN_MOTION_DOT>.2642E-4</MEAN_MOTION_DOT><MEAN_MOTION_DDOT>0</MEAN_MOTION_DDOT></tleParameters></data></segment></body></omm>
<omm id="CCSDS_OMM_VERS" version="2.0">
<header><CREATION_DATE/><ORIGINATOR/></header><body><segment><metadata><OBJECT_NAME>ORBCOMM FM31 [-]</OBJECT_NAME><OBJECT_ID>1999-065B</OBJECT_ID><CENTER_NAME>EARTH</CENTER_NAME><REF_FRAME>TEME</REF_FRAME><TIME_SYSTEM>UTC</TIME_SYSTEM><MEAN_ELEMENT_THEORY>SGP4</MEAN_ELEMENT_THEORY></metadata><data><meanElements><EPOCH>2023-10-13T20:58:35.122368</EPOCH><MEAN_MOTION>14.34472808</MEAN_MOTION><ECCENTRICITY>.0003659</ECCENTRICITY><INCLINATION>45.0218</INCLINATION><RA_OF_ASC_NODE>94.8223</RA_OF_ASC_NODE><ARG_OF_PERICENTER>202.4005</ARG_OF_PERICENTER><MEAN_ANOMALY>157.6683</MEAN_ANOMALY></meanElements><tleParameters><EPHEMERIS_TYPE>0</EPHEMERIS_TYPE><CLASSIFICATION_TYPE>U</CLASSIFICATION_TYPE><NORAD_CAT_ID>25981</NORAD_CAT_ID><ELEMENT_SET_NO>999</ELEMENT_SET_NO><REV_AT_EPOCH>24600</REV_AT_EPOCH><BSTAR>.1005E-2</BSTAR><MEAN_MOTION_DOT>.2718E-4</MEAN_MOTION_DOT><MEAN_MOTION_DDOT>0</MEAN_MOTION_DDOT></tleParameters></data></segment></body></omm>
<omm id="CCSDS_OMM_VERS" version="2.0">
<header><CREATION_DATE/><ORIGINATOR/></header><body><segment><metadata><OBJECT_NAME>ORBCOMM FM32 [+]</OBJECT_NAME><OBJECT_ID>1999-065C</OBJECT_ID><CENTER_NAME>EARTH</CENTER_NAME><REF_FRAME>TEME</REF_FRAME><TIME_SYSTEM>UTC</TIME_SYSTEM><MEAN_ELEMENT_THEORY>SGP4</MEAN_ELEMENT_THEORY></metadata><data><meanElements><EPOCH>2023-10-13T18:33:12.819456</EPOCH><MEAN_MOTION>14.33415980</MEAN_MOTION><ECCENTRICITY>.0005613</ECCENTRICITY><INCLINATION>45.0143</INCLINATION><RA_OF_ASC_NODE>107.5584</RA_OF_ASC_NODE><ARG_OF_PERICENTER>206.2159</ARG_OF_PERICENTER><MEAN_ANOMALY>153.8404</MEAN_ANOMALY></meanElements><tleParameters><EPHEMERIS_TYPE>0</EPHEMERIS_TYPE><CLASSIFICATION_TYPE>U</CLASSIFICATION_TYPE><NORAD_CAT_ID>25982</NORAD_CAT_ID><ELEMENT_SET_NO>999</ELEMENT_SET_NO><REV_AT_EPOCH>24664</REV_AT_EPOCH><BSTAR>.93241E-3</BSTAR><MEAN_MOTION_DOT>.2457E-4</MEAN_MOTION_DOT><MEAN_MOTION_DDOT>0</MEAN_MOTION_DDOT></tleParameters></data></segment></body></omm>

</ndm>
